AQUA                    
1 27424U 02022A   26190.84678780  .00000491  00000+0  10730-3 0  9998
2 27424  98.4291 160.5845 0000785 103.5476 343.2193 14.62192238286581
ARIRANG-2 (KOMPSAT-2)   
1 29268U 06031A   26190.84693177  .00000563  00000+0  11409-3 0  9991
2 29268  97.8319  14.1982 0014719   7.7653 104.9940 14.64675060 64793
ARIRANG-3 (KOMPSAT-3)   
1 38338U 12025B   26190.81993807  .00000272  00000+0  63294-4 0  9996
2 38338  98.1182 147.8909 0006507  52.7596 307.4198 14.62226205754655
ARIRANG-5 (KOMPSAT-5)   
1 39227U 13042A   26190.84537321  .00001184  00000+0  88852-4 0  9992
2 39227  97.6222  17.2279 0005522  71.3580 288.8245 15.04519879707267
ALOS-2                  
1 39766U 14029A   26190.86380984  .00000592  00000+0  86155-4 0  9995
2 39766  97.9220 287.7038 0001634  91.0180 269.1219 14.79474132654939
ASNARO                  
1 40298U 14070A   26190.81130499  .00006251  00000+0  29503-3 0  9993
2 40298  97.3442 266.3170 0006752 102.1731 258.0261 15.19779472647445
ALSAT-1B                
1 41785U 16059C   26190.87186253  .00000472  00000+0  82072-4 0  9999
2 41785  97.7759 198.6565 0009960 145.2466 214.9395 14.72292848523913
ARKTIKA-M 1             
1 47719U 21016A   26188.42887598 -.00000257  00000+0  00000+0 0  9997
2 47719  63.2524  54.6812 7295086 270.0380  14.5466  2.00614486 39194
ARKTIKA-M 2             
1 58584U 23198A   26189.19640102  .00000204  00000+0  00000+0 0  9996
2 58584  63.2191 152.0158 6908458 267.3598  18.7565  2.00608968 18747
ALOS-4 (DAICHI-4)       
1 60182U 24123A   26190.81553650  .00000978  00000+0  13786-3 0  9991
2 60182  97.9220 287.6667 0001615  97.9415 262.1980 14.79472587109224
